INTELSAT 23 (IS-23)     
1 38867U 12057A   26062.50464675 -.00000299  00000+0  00000+0 0  9999
2 38867   0.0462 260.5275 0001014  86.4678 302.9453  1.00274122 48892
FM-6                    
1 39360U 13058A   26062.70615471 -.00000030  00000+0  00000+0 0  9997
2 39360   0.0218 129.3351 0002888  53.1084 117.0447  1.00269099 45015
INTELSAT 30 (IS-30)     
1 40271U 14062A   26062.56766063 -.00000165  00000+0  00000+0 0  9993
2 40271   0.0137  82.8937 0001162  26.6195 161.1234  1.00271059  5731
DIRECTV 14              
1 40333U 14078B   26062.56679395 -.00000140  00000+0  00000+0 0  9993
2 40333   0.0210 118.6380 0000429  40.9367 106.5486  1.00272482 40986
DIRECTV 15              
1 40663U 15026A   26062.63742767 -.00000117  00000+0  00000+0 0  9999
2 40663   0.0184 106.3479 0000830 103.5608  78.0810  1.00271646 39405
SKY MEXICO-1            
1 40664U 15026B   26062.77989112 -.00000248  00000+0  00000+0 0  9997
2 40664   0.0197 131.1785 0002243 231.6108   0.7049  1.00269918 39397
INTELSAT 34 (IS-34)     
1 40874U 15039A   26062.78944181 -.00000299  00000+0  00000+0 0  9998
2 40874   0.0342 282.0217 0000084 309.0996 159.1310  1.00270547 38562
INTELSAT 31 (IS-31)     
1 41581U 16035A   26062.56766063 -.00000165  00000+0  00000+0 0  9990
2 41581   0.0397 252.5846 0001912 338.6854  39.3589  1.00271002 35628
INTELSAT 36 (IS-36)     
1 41747U 16053A   26062.76607596  .00000000  00000+0  00000+0 0  9998
2 41747   0.0218 121.9316 0001195 211.6577 172.2393  1.00268609 34909
INTELSAT 32E (IS-32E)   
1 41945U 17007B   26062.79186848 -.00000283  00000+0  00000+0 0  9997
2 41945   0.0185 128.1858 0000432 134.6982 140.5442  1.00269682 33161
INTELSAT 35E (IS-35E)   
1 42818U 17041A   26062.79360183 -.00000252  00000+0  00000+0 0  9997
2 42818   0.0321 253.2443 0002241  88.3020  71.1747  1.00271123 31754
INTELSAT 37E (IS-37E)   
1 42950U 17059A   26062.79689519  .00000000  00000+0  00000+0 0  9990
2 42950   0.0264 150.0893 0002172 195.6789  84.6867  1.00269268 31004
AZERSPACE 2 (IS-38)     
1 43632U 18074A   26062.66672116  .00000000  00000+0  00000+0 0  9997
2 43632   0.0253 148.8353 0001470 204.6074  93.1255  1.00270112 27386
HORIZONS-3E             
1 43633U 18074B   26062.76257500 -.00000045  00000+0  00000+0 0  9995
2 43633   0.0098 203.9545 0000603 126.7918 274.2678  1.00271508 27288
AT&T T-16               
1 44333U 19034A   26062.56653395 -.00000129  00000+0  00000+0 0  9993
2 44333   0.0237 100.2971 0000711  64.4362  99.6581  1.00268498 24579
INTELSAT 39 (IS-39)     
1 44476U 19049B   26062.76481566  .00000000  00000+0  00000+0 0  9995
2 44476   0.0248 154.8860 0000640 355.3734 348.5518  1.00268938 24077
GALAXY 30 (G-30)        
1 46114U 20056C   26062.70433469  .00000023  00000+0  00000+0 0  9994
2 46114   0.0158 120.6788 0002192 220.8853 308.4406  1.00272514 20230
